[{"OBJECT_NAME":"ONEWEB-0628","OBJECT_ID":"2023-004AF","EPOCH":"2025-07-31T14:21:11.157984","MEAN_MOTION":13.1244326,"ECCENTRICITY":0.0001636,"INCLINATION":87.886,"RA_OF_ASC_NODE":54.3777,"ARG_OF_PERICENTER":110.7549,"MEAN_ANOMALY":249.3754,"EPHEMERIS_TYPE":0,"CLASSIFICATION_TYPE":"U","NORAD_CAT_ID":55169,"ELEMENT_SET_NO":999,"REV_AT_EPOCH":12598,"BSTAR":-0.00085039,"MEAN_MOTION_DOT":-2.93e-6,"MEAN_MOTION_DDOT":0},{"OBJECT_NAME":"ONEWEB-0629","OBJECT_ID":"2023-004AG","EPOCH":"2025-07-31T14:05:10.472064","MEAN_MOTION":13.17649712,"ECCENTRICITY":0.0001968,"INCLINATION":87.9043,"RA_OF_ASC_NODE":69.6911,"ARG_OF_PERICENTER":93.0772,"MEAN_ANOMALY":267.0584,"EPHEMERIS_TYPE":0,"CLASSIFICATION_TYPE":"U","NORAD_CAT_ID":55170,"ELEMENT_SET_NO":999,"REV_AT_EPOCH":12536,"BSTAR":7.3859e-5,"MEAN_MOTION_DOT":4.2e-7,"MEAN_MOTION_DDOT":0},{"OBJECT_NAME":"ONEWEB-0631","OBJECT_ID":"2023-004AH","EPOCH":"2025-07-31T14:22:15.755808","MEAN_MOTION":13.18686858,"ECCENTRICITY":0.0001283,"INCLINATION":87.9125,"RA_OF_ASC_NODE":39.1125,"ARG_OF_PERICENTER":80.2242,"MEAN_ANOMALY":279.9035,"EPHEMERIS_TYPE":0,"CLASSIFICATION_TYPE":"U","NORAD_CAT_ID":55171,"ELEMENT_SET_NO":999,"REV_AT_EPOCH":12742,"BSTAR":-7.6595e-5,"MEAN_MOTION_DOT":-1.7e-7,"MEAN_MOTION_DDOT":0},{"OBJECT_NAME":"ONEWEB-0709","OBJECT_ID":"2023-004AJ","EPOCH":"2025-07-31T16:21:29.556576","MEAN_MOTION":13.11418575,"ECCENTRICITY":0.0001711,"INCLINATION":87.8804,"RA_OF_ASC_NODE":84.9758,"ARG_OF_PERICENTER":49.0183,"MEAN_ANOMALY":311.1093,"EPHEMERIS_TYPE":0,"CLASSIFICATION_TYPE":"U","NORAD_CAT_ID":55172,"ELEMENT_SET_NO":999,"REV_AT_EPOCH":12387,"BSTAR":-0.0012626,"MEAN_MOTION_DOT":-4.35e-6,"MEAN_MOTION_DDOT":0},{"OBJECT_NAME":"ONEWEB-0710","OBJECT_ID":"2023-004AK","EPOCH":"2025-07-31T14:25:49.288224","MEAN_MOTION":13.17650094,"ECCENTRICITY":0.0001617,"INCLINATION":87.9033,"RA_OF_ASC_NODE":69.6873,"ARG_OF_PERICENTER":88.0869,"MEAN_ANOMALY":272.0448,"EPHEMERIS_TYPE":0,"CLASSIFICATION_TYPE":"U","NORAD_CAT_ID":55173,"ELEMENT_SET_NO":999,"REV_AT_EPOCH":12536,"BSTAR":3.3113e-5,"MEAN_MOTION_DOT":2.6e-7,"MEAN_MOTION_DDOT":0},{"OBJECT_NAME":"ONEWEB-0711","OBJECT_ID":"2023-004AL","EPOCH":"2025-07-31T13:50:08.186496","MEAN_MOTION":13.11415183,"ECCENTRICITY":0.0001317,"INCLINATION":87.8801,"RA_OF_ASC_NODE":84.9641,"ARG_OF_PERICENTER":105.8752,"MEAN_ANOMALY":254.2521,"EPHEMERIS_TYPE":0,"CLASSIFICATION_TYPE":"U","NORAD_CAT_ID":55174,"ELEMENT_SET_NO":999,"REV_AT_EPOCH":12381,"BSTAR":0.00017648,"MEAN_MOTION_DOT":7.5e-7,"MEAN_MOTION_DDOT":0},{"OBJECT_NAME":"ONEWEB-0713","OBJECT_ID":"2023-004AM","EPOCH":"2025-07-31T14:16:58.585728","MEAN_MOTION":13.11416016,"ECCENTRICITY":0.0001552,"INCLINATION":87.8803,"RA_OF_ASC_NODE":84.968,"ARG_OF_PERICENTER":87.8925,"MEAN_ANOMALY":272.238,"EPHEMERIS_TYPE":0,"CLASSIFICATION_TYPE":"U","NORAD_CAT_ID":55175,"ELEMENT_SET_NO":999,"REV_AT_EPOCH":12380,"BSTAR":-0.0018126,"MEAN_MOTION_DOT":-6.3e-6,"MEAN_MOTION_DDOT":0},{"OBJECT_NAME":"ONEWEB-0715","OBJECT_ID":"2023-004AN","EPOCH":"2025-07-31T14:09:39.456864","MEAN_MOTION":13.11415929,"ECCENTRICITY":0.0001513,"INCLINATION":87.8804,"RA_OF_ASC_NODE":84.9694,"ARG_OF_PERICENTER":70.3787,"MEAN_ANOMALY":289.7504,"EPHEMERIS_TYPE":0,"CLASSIFICATION_TYPE":"U","NORAD_CAT_ID":55176,"ELEMENT_SET_NO":999,"REV_AT_EPOCH":12384,"BSTAR":-0.001249,"MEAN_MOTION_DOT":-4.3e-6,"MEAN_MOTION_DDOT":0},{"OBJECT_NAME":"ONEWEB-0716","OBJECT_ID":"2023-004AP","EPOCH":"2025-07-31T14:16:06.180672","MEAN_MOTION":13.17650047,"ECCENTRICITY":0.0001987,"INCLINATION":87.9032,"RA_OF_ASC_NODE":69.6886,"ARG_OF_PERICENTER":82.758,"MEAN_ANOMALY":277.3778,"EPHEMERIS_TYPE":0,"CLASSIFICATION_TYPE":"U","NORAD_CAT_ID":55177,"ELEMENT_SET_NO":999,"REV_AT_EPOCH":12536,"BSTAR":-1.5769e-5,"MEAN_MOTION_DOT":7.0e-8,"MEAN_MOTION_DDOT":0},{"OBJECT_NAME":"ONEWEB-0717","OBJECT_ID":"2023-004AQ","EPOCH":"2025-07-31T13:51:48.276576","MEAN_MOTION":13.17649212,"ECCENTRICITY":0.000118,"INCLINATION":87.9037,"RA_OF_ASC_NODE":69.6514,"ARG_OF_PERICENTER":103.0562,"MEAN_ANOMALY":257.0701,"EPHEMERIS_TYPE":0,"CLASSIFICATION_TYPE":"U","NORAD_CAT_ID":55178,"ELEMENT_SET_NO":999,"REV_AT_EPOCH":12541,"BSTAR":-0.00018732,"MEAN_MOTION_DOT":-6.0e-7,"MEAN_MOTION_DDOT":0},{"OBJECT_NAME":"ONEWEB-0719","OBJECT_ID":"2023-004AR","EPOCH":"2025-07-31T14:06:22.805280","MEAN_MOTION":13.17648987,"ECCENTRICITY":0.0001961,"INCLINATION":87.9033,"RA_OF_ASC_NODE":69.6327,"ARG_OF_PERICENTER":86.9244,"MEAN_ANOMALY":273.2111,"EPHEMERIS_TYPE":0,"CLASSIFICATION_TYPE":"U","NORAD_CAT_ID":55179,"ELEMENT_SET_NO":999,"REV_AT_EPOCH":12536,"BSTAR":-0.00033111,"MEAN_MOTION_DOT":-1.16e-6,"MEAN_MOTION_DDOT":0},{"OBJECT_NAME":"ONEWEB-0530","OBJECT_ID":"2023-029A","EPOCH":"2025-07-31T15:20:29.035680","MEAN_MOTION":13.20772469,"ECCENTRICITY":0.0001897,"INCLINATION":87.9296,"RA_OF_ASC_NODE":338.3485,"ARG_OF_PERICENTER":114.7319,"MEAN_ANOMALY":245.4011,"EPHEMERIS_TYPE":0,"CLASSIFICATION_TYPE":"U","NORAD_CAT_ID":55796,"ELEMENT_SET_NO":999,"REV_AT_EPOCH":11883,"BSTAR":1.5578e-5,"MEAN_MOTION_DOT":1.9e-7,"MEAN_MOTION_DDOT":0},{"OBJECT_NAME":"ONEWEB-0534","OBJECT_ID":"2023-029B","EPOCH":"2025-07-31T15:02:18.345408","MEAN_MOTION":13.20779926,"ECCENTRICITY":0.0001991,"INCLINATION":87.9293,"RA_OF_ASC_NODE":338.3579,"ARG_OF_PERICENTER":98.2737,"MEAN_ANOMALY":261.8622,"EPHEMERIS_TYPE":0,"CLASSIFICATION_TYPE":"U","NORAD_CAT_ID":55797,"ELEMENT_SET_NO":999,"REV_AT_EPOCH":11883,"BSTAR":0.0027461,"MEAN_MOTION_DOT":1.13e-5,"MEAN_MOTION_DDOT":0},{"OBJECT_NAME":"ONEWEB-0556","OBJECT_ID":"2023-029C","EPOCH":"2025-07-31T15:11:24.261216","MEAN_MOTION":13.20772494,"ECCENTRICITY":0.0002599,"INCLINATION":87.9296,"RA_OF_ASC_NODE":338.3494,"ARG_OF_PERICENTER":108.628,"MEAN_ANOMALY":251.5136,"EPHEMERIS_TYPE":0,"CLASSIFICATION_TYPE":"U","NORAD_CAT_ID":55798,"ELEMENT_SET_NO":999,"REV_AT_EPOCH":11883,"BSTAR":5.1128e-5,"MEAN_MOTION_DOT":3.4e-7,"MEAN_MOTION_DDOT":0},{"OBJECT_NAME":"ONEWEB-0562","OBJECT_ID":"2023-029D","EPOCH":"2025-07-31T14:53:14.350272","MEAN_MOTION":13.20770961,"ECCENTRICITY":0.0002331,"INCLINATION":87.9289,"RA_OF_ASC_NODE":338.3434,"ARG_OF_PERICENTER":122.2987,"MEAN_ANOMALY":237.8373,"EPHEMERIS_TYPE":0,"CLASSIFICATION_TYPE":"U","NORAD_CAT_ID":55799,"ELEMENT_SET_NO":999,"REV_AT_EPOCH":11883,"BSTAR":0.00019629,"MEAN_MOTION_DOT":9.3e-7,"MEAN_MOTION_DDOT":0},{"OBJECT_NAME":"ONEWEB-0563","OBJECT_ID":"2023-029E","EPOCH":"2025-07-31T20:11:25.844640","MEAN_MOTION":13.20771085,"ECCENTRICITY":0.0002231,"INCLINATION":87.9301,"RA_OF_ASC_NODE":338.3159,"ARG_OF_PERICENTER":97.2371,"MEAN_ANOMALY":262.9016,"EPHEMERIS_TYPE":0,"CLASSIFICATION_TYPE":"U","NORAD_CAT_ID":55800,"ELEMENT_SET_NO":999,"REV_AT_EPOCH":11953,"BSTAR":-0.00023508,"MEAN_MOTION_DOT":-8.3e-7,"MEAN_MOTION_DDOT":0},{"OBJECT_NAME":"ONEWEB-0564","OBJECT_ID":"2023-029F","EPOCH":"2025-07-31T14:35:03.134688","MEAN_MOTION":13.20771422,"ECCENTRICITY":0.0001919,"INCLINATION":87.9283,"RA_OF_ASC_NODE":338.3486,"ARG_OF_PERICENTER":110.968,"MEAN_ANOMALY":249.1658,"EPHEMERIS_TYPE":0,"CLASSIFICATION_TYPE":"U","NORAD_CAT_ID":55801,"ELEMENT_SET_NO":999,"REV_AT_EPOCH":11883,"BSTAR":0.00031171,"MEAN_MOTION_DOT":1.4e-6,"MEAN_MOTION_DDOT":0},{"OBJECT_NAME":"ONEWEB-0638","OBJECT_ID":"2023-029G","EPOCH":"2025-07-31T15:11:07.845216","MEAN_MOTION":13.1450314,"ECCENTRICITY":0.0002258,"INCLINATION":87.9073,"RA_OF_ASC_NODE":353.5534,"ARG_OF_PERICENTER":105.6747,"MEAN_ANOMALY":254.4632,"EPHEMERIS_TYPE":0,"CLASSIFICATION_TYPE":"U","NORAD_CAT_ID":55802,"ELEMENT_SET_NO":999,"REV_AT_EPOCH":11728,"BSTAR":8.1802e-5,"MEAN_MOTION_DOT":4.3e-7,"MEAN_MOTION_DDOT":0},{"OBJECT_NAME":"ONEWEB-0639","OBJECT_ID":"2023-029H","EPOCH":"2025-07-31T11:29:02.242752","MEAN_MOTION":13.19725145,"ECCENTRICITY":0.0002611,"INCLINATION":87.924,"RA_OF_ASC_NODE":8.7374,"ARG_OF_PERICENTER":71.2287,"MEAN_ANOMALY":288.9129,"EPHEMERIS_TYPE":0,"CLASSIFICATION_TYPE":"U","NORAD_CAT_ID":55803,"ELEMENT_SET_NO":999,"REV_AT_EPOCH":11660,"BSTAR":-0.00028569,"MEAN_MOTION_DOT":-1.01e-6,"MEAN_MOTION_DDOT":0},{"OBJECT_NAME":"ONEWEB-0640","OBJECT_ID":"2023-029J","EPOCH":"2025-07-31T15:24:48.846528","MEAN_MOTION":13.14504156,"ECCENTRICITY":0.0002575,"INCLINATION":87.907,"RA_OF_ASC_NODE":353.5385,"ARG_OF_PERICENTER":98.308,"MEAN_ANOMALY":261.8342,"EPHEMERIS_TYPE":0,"CLASSIFICATION_TYPE":"U","NORAD_CAT_ID":55804,"ELEMENT_SET_NO":999,"REV_AT_EPOCH":11730,"BSTAR":-0.000262,"MEAN_MOTION_DOT":-8.4e-7,"MEAN_MOTION_DDOT":0},{"OBJECT_NAME":"ONEWEB-0641","OBJECT_ID":"2023-029K","EPOCH":"2025-07-31T11:22:13.315872","MEAN_MOTION":13.1972454,"ECCENTRICITY":0.0001936,"INCLINATION":87.924,"RA_OF_ASC_NODE":8.7098,"ARG_OF_PERICENTER":87.6878,"MEAN_ANOMALY":272.4477,"EPHEMERIS_TYPE":0,"CLASSIFICATION_TYPE":"U","NORAD_CAT_ID":55805,"ELEMENT_SET_NO":999,"REV_AT_EPOCH":11661,"BSTAR":0.00021135,"MEAN_MOTION_DOT":9.8e-7,"MEAN_MOTION_DDOT":0},{"OBJECT_NAME":"ONEWEB-0642","OBJECT_ID":"2023-029L","EPOCH":"2025-07-31T11:15:25.177824","MEAN_MOTION":13.19726111,"ECCENTRICITY":0.0002223,"INCLINATION":87.9232,"RA_OF_ASC_NODE":8.748,"ARG_OF_PERICENTER":69.7669,"MEAN_ANOMALY":290.3703,"EPHEMERIS_TYPE":0,"CLASSIFICATION_TYPE":"U","NORAD_CAT_ID":55806,"ELEMENT_SET_NO":999,"REV_AT_EPOCH":11660,"BSTAR":0.00029991,"MEAN_MOTION_DOT":1.33e-6,"MEAN_MOTION_DDOT":0},{"OBJECT_NAME":"ONEWEB-0643","OBJECT_ID":"2023-029M","EPOCH":"2025-07-31T11:02:12.764544","MEAN_MOTION":13.14504363,"ECCENTRICITY":0.0001774,"INCLINATION":87.907,"RA_OF_ASC_NODE":353.5575,"ARG_OF_PERICENTER":72.4229,"MEAN_ANOMALY":287.7094,"EPHEMERIS_TYPE":0,"CLASSIFICATION_TYPE":"U","NORAD_CAT_ID":55807,"ELEMENT_SET_NO":999,"REV_AT_EPOCH":11725,"BSTAR":0.0008988,"MEAN_MOTION_DOT":3.46e-6,"MEAN_MOTION_DDOT":0},{"OBJECT_NAME":"ONEWEB-0644","OBJECT_ID":"2023-029N","EPOCH":"2025-07-31T11:08:35.253024","MEAN_MOTION":13.19725852,"ECCENTRICITY":0.0002003,"INCLINATION":87.9237,"RA_OF_ASC_NODE":8.7547,"ARG_OF_PERICENTER":78.9467,"MEAN_ANOMALY":281.1891,"EPHEMERIS_TYPE":0,"CLASSIFICATION_TYPE":"U","NORAD_CAT_ID":55808,"ELEMENT_SET_NO":999,"REV_AT_EPOCH":11660,"BSTAR":0.00021295,"MEAN_MOTION_DOT":9.8e-7,"MEAN_MOTION_DDOT":0}]
